NORAD_CAT_ID,OBJECT_NAME,OBJECT_TYPE,EPOCH,MEAN_MOTION,ECCENTRICITY,INCLINATION,RA_OF_ASC_NODE,ARG_OF_PERICENTER,MEAN_ANOMALY,BSTAR,MEAN_MOTION_DOT,MEAN_MOTION_DDOT,TLE_LINE0,TLE_LINE1,TLE_LINE2,SEMIMAJOR_AXIS,PERIOD,APOGEE,PERIGEE,DECAYED
53590.0,STARLINK-4689,PAYLOAD,2024-05-23 10:54:36,15.08845201,0.0001769,53.2193,305.7947,110.4653,249.653,0.00018521,2.661e-05,0.0,0 STARLINK-4689,1 53590U 22104C   24144.45458752  .00002661  00000-0  18521-3 0  9991,2 53590  53.2193 305.7947 0001769 110.4653 249.6530 15.08845201 96003,6917.864,95.437,540.953,538.506,0.0
53590.0,STARLINK-4689,PAYLOAD,2024-05-23 14:05:22,15.08841652,0.0001588,53.2186,305.1987,109.0087,251.1077,0.00011025,1.467e-05,0.0,0 STARLINK-4689,1 53590U 22104C   24144.58706888  .00001467  00000-0  11025-3 0  9996,2 53590  53.2186 305.1987 0001588 109.0087 251.1077 15.08841652 97064,6917.875,95.437,540.839,538.642,0.0
53590.0,STARLINK-4689,PAYLOAD,2024-05-23 20:26:55,15.08842536,0.0001533,53.2181,304.009,105.771,254.3452,0.00012083,1.636e-05,0.0,0 STARLINK-4689,1 53590U 22104C   24144.85202878  .00001636  00000-0  12083-3 0  9999,2 53590  53.2181 304.0090 0001533 105.7710 254.3452 15.08842536 97107,6917.873,95.437,540.798,538.677,0.0
53590.0,STARLINK-4689,PAYLOAD,2024-05-24 10:45:23,15.08840136,0.0001782,53.2176,301.3316,117.5909,242.5265,4.6777e-05,4.56e-06,0.0,0 STARLINK-4689,1 53590U 22104C   24145.44818986  .00000456  00000-0  46777-4 0  9995,2 53590  53.2176 301.3316 0001782 117.5909 242.5265 15.08840136 96158,6917.88,95.438,540.978,538.512,0.0
53590.0,STARLINK-4689,PAYLOAD,2024-05-24 13:56:09,15.08838527,0.0001773,53.2178,300.7369,116.4344,243.6831,1.3947e-05,-6.6e-07,0.0,0 STARLINK-4689,1 53590U 22104C   24145.58067063 -.00000066  00000-0  13947-4 0  9993,2 53590  53.2178 300.7369 0001773 116.4344 243.6831 15.08838527 97212,6917.885,95.438,540.976,538.523,0.0
53590.0,STARLINK-4689,PAYLOAD,2024-05-24 20:17:42,15.08831566,0.0001438,53.2176,299.5479,108.5444,251.5705,8.8842e-05,1.126e-05,0.0,0 STARLINK-4689,1 53590U 22104C   24145.84563536  .00001126  00000-0  88842-4 0  9991,2 53590  53.2176 299.5479 0001438 108.5444 251.5705 15.08831566 96211,6917.906,95.438,540.766,538.776,0.0
53590.0,STARLINK-4689,PAYLOAD,2024-05-25 13:46:57,15.08823661,0.0001316,53.2175,296.2767,100.0046,260.1095,9.1984e-05,1.176e-05,0.0,0 STARLINK-4689,1 53590U 22104C   24146.57428134  .00001176  00000-0  91984-4 0  9992,2 53590  53.2175 296.2767 0001316 100.0046 260.1095 15.08823661 97366,6917.93,95.439,540.706,538.885,0.0
53590.0,STARLINK-4689,PAYLOAD,2024-05-26 02:29:46,15.09057876,0.0001638,53.2177,293.9063,250.8748,109.2067,0.0016973,0.0002699,0.0,0 STARLINK-4689,1 53590U 22104C   24147.10400862  .00026990  00000-0  16973-2 0  9994,2 53590  53.2177 293.9063 0001638 250.8748 109.2067 15.09057876 96405,6917.215,95.424,540.213,537.946,0.0
53590.0,STARLINK-4689,PAYLOAD,2024-05-26 10:26:55,15.08849802,8.45e-05,53.218,292.4206,24.2732,335.83,0.0009681,0.00015157,0.0,0 STARLINK-4689,1 53590U 22104C   24147.43536122  .00015157  00000-0  96810-3 0  9991,2 53590  53.2180 292.4206 0000845  24.2732 335.8300 15.08849802 96456,6917.85,95.437,540.3,539.131,0.0
53590.0,STARLINK-4689,PAYLOAD,2024-05-26 15:13:07,15.08836316,0.0001095,53.2181,291.528,69.7872,290.3238,0.00017527,2.502e-05,0.0,0 STARLINK-4689,1 53590U 22104C   24147.63411603  .00002502  00000-0  17527-3 0  9997,2 53590  53.2181 291.5280 0001095  69.7872 290.3238 15.08836316 97526,6917.892,95.438,540.514,538.999,0.0
53590.0,STARLINK-4689,PAYLOAD,2024-05-26 16:48:31,15.08809391,0.0001141,53.2183,291.2331,98.9022,261.21,0.00055395,8.532e-05,0.0,0 STARLINK-4689,1 53590U 22104C   24147.70036251  .00008532  00000-0  55395-3 0  9991,2 53590  53.2183 291.2331 0001141  98.9022 261.2100 15.08809391 96498,6917.974,95.439,540.628,539.05,0.0
53590.0,STARLINK-4689,PAYLOAD,2024-05-26 16:48:41,15.08672207,0.0001813,53.2182,291.2328,85.3328,274.7871,-0.00062457,-0.00010169,0.0,0 STARLINK-4689,1 53590U 22104C   24147.70047846 -.00010169  00000-0 -62457-3 0  9991,2 53590  53.2182 291.2328 0001813  85.3328 274.7871 15.08672207 96496,6918.393,95.448,541.513,539.004,0.0
53590.0,STARLINK-4689,PAYLOAD,2024-05-27 13:28:29,15.08858878,0.000131,53.2193,287.3665,99.9086,260.2054,0.00032134,4.832e-05,0.0,0 STARLINK-4689,1 53590U 22104C   24148.56144704  .00004832  00000-0  32134-3 0  9994,2 53590  53.2193 287.3665 0001310  99.9086 260.2054 15.08858878 96620,6917.823,95.436,540.594,538.781,0.0
53590.0,STARLINK-4689,PAYLOAD,2024-05-27 18:14:40,15.08836549,0.0001163,53.2181,286.4645,80.7113,279.401,7.2493e-05,8.66e-06,0.0,0 STARLINK-4689,1 53590U 22104C   24148.76018584  .00000866  00000-0  72493-4 0  9998,2 53590  53.2181 286.4645 0001163  80.7113 279.4010 15.08836549 96658,6917.891,95.438,540.56,538.951,0.0
53590.0,STARLINK-4689,PAYLOAD,2024-05-28 13:19:19,15.0883021,0.000139,53.218,282.8927,114.3012,245.8125,-0.00014584,-2.608e-05,0.0,0 STARLINK-4689,1 53590U 22104C   24149.55508166 -.00002608  00000-0 -14584-3 0  9990,2 53590  53.2180 282.8927 0001390 114.3012 245.8125 15.08830210 96770,6917.91,95.438,540.737,538.814,0.0
53590.0,STARLINK-4689,PAYLOAD,2024-05-28 16:30:05,15.08829584,0.0001484,53.2185,282.2991,72.6244,287.491,-0.00013644,-2.458e-05,0.0,0 STARLINK-4689,1 53590U 22104C   24149.68756472 -.00002458  00000-0 -13644-3 0  9998,2 53590  53.2185 282.2991 0001484  72.6244 287.4910 15.08829584 97831,6917.912,95.438,540.804,538.751,0.0
53590.0,STARLINK-4689,PAYLOAD,2024-05-29 13:10:05,15.08831587,0.0001217,53.2178,278.4393,70.6181,289.4942,6.6322e-05,7.68e-06,0.0,0 STARLINK-4689,1 53590U 22104C   24150.54867344  .00000768  00000-0  66322-4 0  9998,2 53590  53.2178 278.4393 0001217  70.6181 289.4942 15.08831587 96920,6917.906,95.438,540.613,538.929,0.0
53590.0,STARLINK-4689,PAYLOAD,2024-05-29 14:45:28,15.08833179,0.0001485,53.2182,278.1427,58.3522,301.7614,9.5865e-05,1.238e-05,0.0,0 STARLINK-4689,1 53590U 22104C   24150.61491333  .00001238  00000-0  95865-4 0  9994,2 53590  53.2182 278.1427 0001485  58.3522 301.7614 15.08833179 97978,6917.901,95.438,540.794,538.739,0.0
53590.0,STARLINK-4689,PAYLOAD,2024-05-30 14:36:15,15.08839852,0.000147,53.2182,273.6814,57.7467,302.3667,0.00020105,2.913e-05,0.0,0 STARLINK-4689,1 53590U 22104C   24151.60851495  .00002913  00000-0  20105-3 0  9998,2 53590  53.2182 273.6814 0001470  57.7467 302.3667 15.08839852 98120,6917.881,95.438,540.763,538.729,0.0
53590.0,STARLINK-4689,PAYLOAD,2024-05-31 14:27:02,15.08843363,0.0001297,53.2176,269.2193,68.8868,291.2263,4.9601e-05,5.02e-06,0.0,0 STARLINK-4689,1 53590U 22104C   24152.60211572  .00000502  00000-0  49601-4 0  9990,2 53590  53.2176 269.2193 0001297  68.8868 291.2263 15.08843363 98275,6917.87,95.437,540.632,538.838,0.0
53590.0,STARLINK-4689,PAYLOAD,2024-06-01 12:42:27,15.08832964,0.0001259,53.2177,265.0556,81.7219,278.3916,2.7429e-06,-2.44e-06,0.0,0 STARLINK-4689,1 53590U 22104C   24153.52948260 -.00000244  00000-0  27429-5 0  9992,2 53590  53.2177 265.0556 0001259  81.7219 278.3916 15.08832964 97371,6917.902,95.438,540.638,538.896,0.0
53590.0,STARLINK-4689,PAYLOAD,2024-06-01 14:17:50,15.08833167,0.0001291,53.2178,264.7579,85.2748,274.8391,1.7999e-06,-2.59e-06,0.0,0 STARLINK-4689,1 53590U 22104C   24153.59572257 -.00000259  00000-0  17999-5 0  9995,2 53590  53.2178 264.7579 0001291  85.2748 274.8391 15.08833167 98426,6917.901,95.438,540.659,538.873,0.0
53590.0,STARLINK-4689,PAYLOAD,2024-06-02 14:08:37,15.08834083,0.0001189,53.2171,260.2992,88.9271,271.1858,8.4067e-05,1.05e-05,0.0,0 STARLINK-4689,1 53590U 22104C   24154.58932248  .00001050  00000-0  84067-4 0  9993,2 53590  53.2171 260.2992 0001189  88.9271 271.1858 15.08834083 98578,6917.898,95.438,540.586,538.941,0.0
53590.0,STARLINK-4689,PAYLOAD,2024-06-02 23:40:55,15.08850813,0.0001204,53.2179,258.5137,79.9957,280.1171,3.4853e-05,2.67e-06,0.0,0 STARLINK-4689,1 53590U 22104C   24154.98675220  .00000267  00000-0  34853-4 0  9998,2 53590  53.2179 258.5137 0001204  79.9957 280.1171 15.08850813 97594,6917.847,95.437,540.545,538.879,0.0
53590.0,STARLINK-4689,PAYLOAD,2024-06-03 13:59:24,15.08834833,0.0001223,53.2182,255.8416,92.4122,267.7011,0.00012106,1.639e-05,0.0,0 STARLINK-4689,1 53590U 22104C   24155.58292429  .00001639  00000-0  12106-3 0  9991,2 53590  53.2182 255.8416 0001223  92.4122 267.7011 15.08834833 97681,6917.896,95.438,540.607,538.915,0.0
53590.0,STARLINK-4689,PAYLOAD,2024-06-03 23:31:42,15.08854489,0.0001214,53.2191,254.0536,77.8599,282.2529,0.0001726,2.461e-05,0.0,0 STARLINK-4689,1 53590U 22104C   24155.98034822  .00002461  00000-0  17260-3 0  9996,2 53590  53.2191 254.0536 0001214  77.8599 282.2529 15.08854489 97742,6917.836,95.437,540.541,538.861,0.0
53590.0,STARLINK-4689,PAYLOAD,2024-06-04 10:39:25,15.088305,0.000177,53.2172,251.972,79.1082,281.0109,0.00015066,2.11e-05,0.0,0 STARLINK-4689,1 53590U 22104C   24156.44404705  .00002110  00000-0  15066-3 0  9992,2 53590  53.2172 251.9720 0001770  79.1082 281.0109 15.08830500 97818,6917.909,95.438,540.999,538.55,0.0
53590.0,STARLINK-4689,PAYLOAD,2024-06-04 15:25:34,15.0883736,0.0001676,53.2167,251.0814,83.1853,276.933,5.161e-05,5.33e-06,0.0,0 STARLINK-4689,1 53590U 22104C   24156.64276590  .00000533  00000-0  51610-4 0  9996,2 53590  53.2167 251.0814 0001676  83.1853 276.9330 15.08837360 98881,6917.888,95.438,540.913,538.594,0.0
53590.0,STARLINK-4689,PAYLOAD,2024-06-05 05:44:02,15.08841252,0.0002372,53.2155,248.4057,81.6496,278.4765,0.00013549,1.869e-05,0.0,0 STARLINK-4689,1 53590U 22104C   24157.23892236  .00001869  00000-0  13549-3 0  9994,2 53590  53.2155 248.4057 0002372  81.6496 278.4765 15.08841252 97936,6917.877,95.437,541.382,538.101,0.0
53590.0,STARLINK-4689,PAYLOAD,2024-06-05 12:05:36,15.08829907,0.0001142,53.2158,247.2161,90.2521,269.8601,-5.9224e-05,-1.23e-05,0.0,0 STARLINK-4689,1 53590U 22104C   24157.50389375 -.00001230  00000-0 -59224-4 0  9994,2 53590  53.2158 247.2161 0001142  90.2521 269.8601 15.08829907 97971,6917.911,95.438,540.566,538.986,0.0
